[{"OBJECT_NAME":"STARLINK-4389","OBJECT_ID":"2022-099L","EPOCH":"2026-03-09T21:51:46.754784","MEAN_MOTION":15.01257351,"ECCENTRICITY":0.00021959,"INCLINATION":97.601,"RA_OF_ASC_NODE":190.4244,"ARG_OF_PERICENTER":219.9903,"MEAN_ANOMALY":140.116,"EPHEMERIS_TYPE":0,"CLASSIFICATION_TYPE":"U","NORAD_CAT_ID":53475,"ELEMENT_SET_NO":999,"REV_AT_EPOCH":19671,"BSTAR":4.4061171e-5,"MEAN_MOTION_DOT":5.08e-6,"MEAN_MOTION_DDOT":0},{"OBJECT_NAME":"TITAN 3C TRANSTAGE DEB","OBJECT_ID":"1965-082MY","EPOCH":"2026-03-09T02:07:30.980928","MEAN_MOTION":14.9794194,"ECCENTRICITY":0.0005374,"INCLINATION":32.3706,"RA_OF_ASC_NODE":83.5066,"ARG_OF_PERICENTER":10.5158,"MEAN_ANOMALY":349.5614,"EPHEMERIS_TYPE":0,"CLASSIFICATION_TYPE":"U","NORAD_CAT_ID":3386,"ELEMENT_SET_NO":999,"REV_AT_EPOCH":23080,"BSTAR":0.0004514074,"MEAN_MOTION_DOT":5.483e-5,"MEAN_MOTION_DDOT":0}]
